{
  "type": "FeatureCollection",
  "features": [
    {
      "type": "Feature",
      "properties": {
        "norad_id": 43823,
        "name": "GEO-KOMPSAT-2A",
        "group": "weather",
        "lat": -0.029815215549832283,
        "lon": -43.46480679857954,
        "alt_km": 35787.13398446429,
        "timestamp": "2025-12-04T07:39:35.817246+00:00",
        "meta_object_name": "GEO-KOMPSAT-2A",
        "meta_object_id": "2018-100A",
        "meta_epoch": "2025-12-03T17:35:40.686720",
        "meta_mean_motion": 1.00269729,
        "meta_eccentricity": 5.41e-05,
        "meta_inclination": 0.0596,
        "meta_ra_of_asc_node": 121.241,
        "meta_arg_of_pericenter": 95.287,
        "meta_mean_anomaly": 248.4703,
        "meta_ephemeris_type": 0,
        "meta_classification_type": "U",
        "meta_norad_cat_id": 43823,
        "meta_element_set_no": 999,
        "meta_rev_at_epoch": 2567,
        "meta_bstar": 0,
        "meta_mean_motion_dot": -3.26e-06,
        "meta_mean_motion_ddot": 0,
        "tle_line1": "1 43823U 18100A   25337.73310980 -.00000326  00000+0  00000+0 0  9991",
        "tle_line2": "2 43823   0.0596 121.2410 0000541  95.2870 248.4703  1.00269729 25678"
      },
      "geometry": {
        "type": "Point",
        "coordinates": [
          -43.46480679857954,
          -0.029815215549832283
        ]
      }
    },
    {
      "type": "Feature",
      "properties": {
        "norad_id": 44387,
        "name": "METEOR-M2 2",
        "group": "weather",
        "lat": 61.901641543372875,
        "lon": -59.11426643473385,
        "alt_km": 804.9657675033359,
        "timestamp": "2025-12-04T07:39:35.817257+00:00",
        "meta_object_name": "METEOR-M2 2",
        "meta_object_id": "2019-038A",
        "meta_epoch": "2025-12-03T22:56:02.581152",
        "meta_mean_motion": 14.24285808,
        "meta_eccentricity": 9.059e-05,
        "meta_inclination": 98.8964,
        "meta_ra_of_asc_node": 317.5773,
        "meta_arg_of_pericenter": 166.4796,
        "meta_mean_anomaly": 193.6407,
        "meta_ephemeris_type": 0,
        "meta_classification_type": "U",
        "meta_norad_cat_id": 44387,
        "meta_element_set_no": 999,
        "meta_rev_at_epoch": 33350,
        "meta_bstar": 0.00016991625,
        "meta_mean_motion_dot": 3.46e-06,
        "meta_mean_motion_ddot": 0,
        "tle_line1": "1 44387U 19038A   25337.95558543  .00000346  00000+0  16992-3 0  9993",
        "tle_line2": "2 44387  98.8964 317.5773 0000905 166.4796 193.6407 14.24285808333504"
      },
      "geometry": {
        "type": "Point",
        "coordinates": [
          -59.11426643473385,
          61.901641543372875
        ]
      }
    },
    {
      "type": "Feature",
      "properties": {
        "norad_id": 47719,
        "name": "ARKTIKA-M 1",
        "group": "weather",
        "lat": 63.046508276844634,
        "lon": 168.8716716730801,
        "alt_km": 39194.801682568606,
        "timestamp": "2025-12-04T07:39:35.817269+00:00",
        "meta_object_name": "ARKTIKA-M 1",
        "meta_object_id": "2021-016A",
        "meta_epoch": "2025-12-01T02:41:41.634816",
        "meta_mean_motion": 2.00613156,
        "meta_eccentricity": 0.71974708,
        "meta_inclination": 63.1756,
        "meta_ra_of_asc_node": 85.6045,
        "meta_arg_of_pericenter": 269.084,
        "meta_mean_anomaly": 15.7076,
        "meta_ephemeris_type": 0,
        "meta_classification_type": "U",
        "meta_norad_cat_id": 47719,
        "meta_element_set_no": 999,
        "meta_rev_at_epoch": 3481,
        "meta_bstar": 0,
        "meta_mean_motion_dot": -1.2e-07,
        "meta_mean_motion_ddot": 0,
        "tle_line1": "1 47719U 21016A   25335.11228744 -.00000012  00000+0  00000+0 0  9997",
        "tle_line2": "2 47719  63.1756  85.6045 7197470 269.0840  15.7076  2.00613156 34816"
      },
      "geometry": {
        "type": "Point",
        "coordinates": [
          168.8716716730801,
          63.046508276844634
        ]
      }
    },
    {
      "type": "Feature",
      "properties": {
        "norad_id": 49008,
        "name": "FENGYUN 3E",
        "group": "weather",
        "lat": 23.41306497482574,
        "lon": 162.76299805348324,
        "alt_km": 825.7364741150323,
        "timestamp": "2025-12-04T07:39:35.817280+00:00",
        "meta_object_name": "FENGYUN 3E",
        "meta_object_id": "2021-062A",
        "meta_epoch": "2025-12-03T22:28:13.847232",
        "meta_mean_motion": 14.19878233,
        "meta_eccentricity": 7.384e-05,
        "meta_inclination": 98.7476,
        "meta_ra_of_asc_node": 338.5619,
        "meta_arg_of_pericenter": 322.2311,
        "meta_mean_anomaly": 37.8814,
        "meta_ephemeris_type": 0,
        "meta_classification_type": "U",
        "meta_norad_cat_id": 49008,
        "meta_element_set_no": 999,
        "meta_rev_at_epoch": 22887,
        "meta_bstar": 5.6923169e-05,
        "meta_mean_motion_dot": 7.7e-07,
        "meta_mean_motion_ddot": 0,
        "tle_line1": "1 49008U 21062A   25337.93627138  .00000077  00000+0  56923-4 0  9993",
        "tle_line2": "2 49008  98.7476 338.5619 0000738 322.2311  37.8814 14.19878233228875"
      },
      "geometry": {
        "type": "Point",
        "coordinates": [
          162.76299805348324,
          23.41306497482574
        ]
      }
    },
    {
      "type": "Feature",
      "properties": {
        "norad_id": 51850,
        "name": "GOES 18",
        "group": "weather",
        "lat": -0.0014293729694866142,
        "lon": 51.274775832171855,
        "alt_km": 35788.132531126634,
        "timestamp": "2025-12-04T07:39:35.817290+00:00",
        "meta_object_name": "GOES 18",
        "meta_object_id": "2022-021A",
        "meta_epoch": "2025-12-03T16:30:38.739168",
        "meta_mean_motion": 1.00270453,
        "meta_eccentricity": 7.983e-05,
        "meta_inclination": 0.0031,
        "meta_ra_of_asc_node": 64.4496,
        "meta_arg_of_pericenter": 225.9944,
        "meta_mean_anomaly": 252.9877,
        "meta_ephemeris_type": 0,
        "meta_classification_type": "U",
        "meta_norad_cat_id": 51850,
        "meta_element_set_no": 999,
        "meta_rev_at_epoch": 463,
        "meta_bstar": 0,
        "meta_mean_motion_dot": 1.14e-06,
        "meta_mean_motion_ddot": 0,
        "tle_line1": "1 51850U 22021A   25337.68794837  .00000114  00000+0  00000+0 0  9992",
        "tle_line2": "2 51850   0.0031  64.4496 0000798 225.9944 252.9877  1.00270453  4632"
      },
      "geometry": {
        "type": "Point",
        "coordinates": [
          51.274775832171855,
          -0.0014293729694866142
        ]
      }
    },
    {
      "type": "Feature",
      "properties": {
        "norad_id": 54234,
        "name": "NOAA 21 (JPSS-2)",
        "group": "weather",
        "lat": 6.38527115992901,
        "lon": 95.71987694421477,
        "alt_km": 829.9278609088942,
        "timestamp": "2025-12-04T07:39:35.817301+00:00",
        "meta_object_name": "NOAA 21 (JPSS-2)",
        "meta_object_id": "2022-150A",
        "meta_epoch": "2025-12-03T22:23:14.938656",
        "meta_mean_motion": 14.19520395,
        "meta_eccentricity": 0.00025259,
        "meta_inclination": 98.7449,
        "meta_ra_of_asc_node": 274.3515,
        "meta_arg_of_pericenter": 54.5016,
        "meta_mean_anomaly": 305.6395,
        "meta_ephemeris_type": 0,
        "meta_classification_type": "U",
        "meta_norad_cat_id": 54234,
        "meta_element_set_no": 999,
        "meta_rev_at_epoch": 15884,
        "meta_bstar": 0.00012104131,
        "meta_mean_motion_dot": 2.11e-06,
        "meta_mean_motion_ddot": 0,
        "tle_line1": "1 54234U 22150A   25337.93281179  .00000211  00000+0  12104-3 0  9992",
        "tle_line2": "2 54234  98.7449 274.3515 0002525  54.5016 305.6395 14.19520395158849"
      },
      "geometry": {
        "type": "Point",
        "coordinates": [
          95.71987694421477,
          6.38527115992901
        ]
      }
    },
    {
      "type": "Feature",
      "properties": {
        "norad_id": 54743,
        "name": "METEOSAT-12 (MTG-I1)",
        "group": "weather",
        "lat": 0.25177988270232654,
        "lon": -172.02198872786653,
        "alt_km": 35782.11439561879,
        "timestamp": "2025-12-04T07:39:35.817313+00:00",
        "meta_object_name": "METEOSAT-12 (MTG-I1)",
        "meta_object_id": "2022-170C",
        "meta_epoch": "2025-12-03T18:42:38.603808",
        "meta_mean_motion": 1.00273728,
        "meta_eccentricity": 0.00015205,
        "meta_inclination": 0.7181,
        "meta_ra_of_asc_node": 30.0784,
        "meta_arg_of_pericenter": 216.336,
        "meta_mean_anomaly": 106.8238,
        "meta_ephemeris_type": 0,
        "meta_classification_type": "U",
        "meta_norad_cat_id": 54743,
        "meta_element_set_no": 999,
        "meta_rev_at_epoch": 1101,
        "meta_bstar": 0,
        "meta_mean_motion_dot": 1e-07,
        "meta_mean_motion_ddot": 0,
        "tle_line1": "1 54743U 22170C   25337.77961347  .00000010  00000+0  00000+0 0  9998",
        "tle_line2": "2 54743   0.7181  30.0784 0001520 216.3360 106.8238  1.00273728 11014"
      },
      "geometry": {
        "type": "Point",
        "coordinates": [
          -172.02198872786653,
          0.25177988270232654
        ]
      }
    }
  ]
}